INTELSAT 21 (IS-21)     
1 38749U 12045A   26162.54039066 -.00000268  00000+0  00000+0 0  9998
2 38749   0.0188 289.0635 0001321 163.5253 303.8368  1.00272424 50463
INTELSAT 23 (IS-23)     
1 38867U 12057A   26162.37406100 -.00000268  00000+0  00000+0 0  9990
2 38867   0.0140 307.2279 0000038 196.2343 197.9213  1.00268413 49895
FM-6                    
1 39360U 13058A   26161.91780745  .00000002  00000+0  00000+0 0  9995
2 39360   0.0114  47.7834 0001681 116.7333 308.7742  1.00268329 46015
INTELSAT 30 (IS-30)     
1 40271U 14062A   26162.53302396 -.00000135  00000+0  00000+0 0  9993
2 40271   0.0275  49.3152 0001255 328.5516 338.8417  1.00278036  6734
DIRECTV 14              
1 40333U 14078B   26161.26641970 -.00000108  00000+0  00000+0 0  9992
2 40333   0.0092   5.4718 0000188 266.0574 343.7738  1.00270829 41973
DIRECTV 15              
1 40663U 15026A   26162.53155062 -.00000085  00000+0  00000+0 0  9999
2 40663   0.0180   7.0171 0000625 277.8273  63.5158  1.00269312 40405
SKY MEXICO-1            
1 40664U 15026B   26162.53631731 -.00000217  00000+0  00000+0 0  9999
2 40664   0.0185 327.3821 0002092 135.5940 271.1791  1.00270302 40391
INTELSAT 34 (IS-34)     
1 40874U 15039A   26162.32698867 -.00000268  00000+0  00000+0 0  9992
2 40874   0.0095 328.8375 0000319 355.2995 357.7670  1.00269705 39575
INTELSAT 31 (IS-31)     
1 41581U 16035A   26161.96275538 -.00000133  00000+0  00000+0 0  9991
2 41581   0.0140 270.6422 0001063 328.4600 271.7540  1.00269494 36620
INTELSAT 36 (IS-36)     
1 41747U 16053A   26162.56541944 -.00000007  00000+0  00000+0 0  9999
2 41747   0.0131  10.8685 0001830 320.6666 200.4136  1.00270485 35909
INTELSAT 32E (IS-32E)   
1 41945U 17007B   26162.25718881 -.00000252  00000+0  00000+0 0  9993
2 41945   0.0031  63.2625 0000534 226.5375  19.2132  1.00268917 34161
INTELSAT 35E (IS-35E)   
1 42818U 17041A   26162.39761128 -.00000221  00000+0  00000+0 0  9994
2 42818   0.0188 325.5986 0001678 111.0010 291.8096  1.00270589 32750
INTELSAT 37E (IS-37E)   
1 42950U 17059A   26162.26314378 -.00000124  00000+0  00000+0 0  9999
2 42950   0.0178  11.8435 0002381  91.1558 233.3384  1.00269936 32000
AZERSPACE 2 (IS-38)     
1 43632U 18074A   26162.13310603  .00000154  00000+0  00000+0 0  9990
2 43632   0.0036  69.3548 0001198  12.8510 270.3100  1.00271976 28387
HORIZONS-3E             
1 43633U 18074B   26160.16142285 -.00000014  00000+0  00000+0 0  9997
2 43633   0.0093 158.1609 0000957 124.5481 201.9406  1.00270197 28266
AT&T T-16               
1 44333U 19034A   26160.67834545 -.00000098  00000+0  00000+0 0  9997
2 44333   0.0247  68.1337 0000640 190.5571 142.7032  1.00268740 25552
INTELSAT 39 (IS-39)     
1 44476U 19049B   26161.94037841  .00000000  00000+0  00000+0 0  9998
2 44476   0.0255 336.9481 0001082 329.3092 353.5144  1.00269836 25065
GALAXY 30 (G-30)        
1 46114U 20056C   26162.40739412  .00000053  00000+0  00000+0 0  9992
2 46114   0.0017 357.0112 0001944  77.5372 206.8848  1.00273404 21239
GALAXY 33 (G-33)        
1 54026U 22128A   26162.52557059  .00000096  00000+0  00000+0 0  9990
2 54026   0.0076 328.1103 0001732 119.2782 228.7054  1.00271888 13684
GALAXY 34 (G-34)        
1 54027U 22128B   26162.01572497  .00000000  00000+0  00000+0 0  9993
2 54027   0.0211 339.9576 0001730 128.3812  27.7038  1.00274952 13856
GALAXY 31 (G-31)        
1 54243U 22153A   26161.95755536  .00000030  00000+0  00000+0 0  9993
2 54243   0.0159 295.5589 0001191 143.3346  44.1475  1.00272181  7075
GALAXY 32 (G-32)        
1 54244U 22153B   26162.31996863  .00000000  00000+0  00000+0 0  9992
2 54244   0.0174   6.3520 0001677 121.7607 155.7345  1.00268737 13080
GALAXY 35 (G-35)        
1 54741U 22170A   26162.53345729 -.00000145  00000+0  00000+0 0  9997
2 54741   0.0154 296.6572 0001894 146.8872 275.2814  1.00270853 12837
GALAXY 36 (G-36)        
1 54742U 22170B   26162.53423730 -.00000168  00000+0  00000+0 0  9992
2 54742   0.0359 125.9311 0002564 316.5219 280.7569  1.00271688 12718
GALAXY 37 (G-37)        
1 57493U 23112A   26162.59803392  .00000065  00000+0  00000+0 0  9992
2 57493   0.0167  11.7089 0001829  67.1784 269.3503  1.00270588 10485
